{
  "type": "FeatureCollection",
  "name": "campi_azienda_agricola",
  "crs": {
    "type": "name",
    "properties": {
      "name": "urn:ogc:def:crs:OGC:1.3:CRS84"
    }
  },
  "features": [
    {
      "type": "Feature",
      "id": "campo-1",
      "geometry": {
        "type": "Polygon",
        "coordinates": [
          [
            [
              12.7054198,
              41.84796889
            ],
            [
              12.70583039,
              41.84802704
            ],
            [
              12.70581717,
              41.84808364
            ],
            [
              12.70577501,
              41.84811574
            ],
            [
              12.70560823,
              41.84810928
            ],
            [
              12.70554831,
              41.84809936
            ],
            [
              12.70551744,
              41.84808345
            ],
            [
              12.70548924,
              41.8480585
            ],
            [
              12.70546097,
              41.84803277
            ],
            [
              12.70543378,
              41.84800208
            ],
            [
              12.70541471,
              41.84798589
            ],
            [
              12.7054198,
              41.84796889
            ]
          ]
        ]
      },
      "properties": {
        "id": "campo-1",
        "nome": "CAMPO 1",
        "ordine": 1,
        "coltura": "seminativo",
        "area_m2": 345.0,
        "area_ha": 0.0345,
        "perimetro_m": 83.9,
        "n_vertici": 11,
        "centroide": [
          12.7056315,
          41.84804796
        ],
        "colore": "#1976d2"
      }
    },
    {
      "type": "Feature",
      "id": "campo-2",
      "geometry": {
        "type": "Polygon",
        "coordinates": [
          [
            [
              12.70535019,
              41.84795907
            ],
            [
              12.70543496,
              41.84807742
            ],
            [
              12.70553121,
              41.8481378
            ],
            [
              12.70558755,
              41.8481418
            ],
            [
              12.70556703,
              41.84824396
            ],
            [
              12.70537592,
              41.84821626
            ],
            [
              12.7052852,
              41.84820232
            ],
            [
              12.70535019,
              41.84795907
            ]
          ]
        ]
      },
      "properties": {
        "id": "campo-2",
        "nome": "CAMPO 2",
        "ordine": 2,
        "coltura": "seminativo",
        "area_m2": 386.8,
        "area_ha": 0.0387,
        "perimetro_m": 93.0,
        "n_vertici": 7,
        "centroide": [
          12.70542175,
          41.8481405
        ],
        "colore": "#1976d2"
      }
    },
    {
      "type": "Feature",
      "id": "campo-3",
      "geometry": {
        "type": "Polygon",
        "coordinates": [
          [
            [
              12.70558663,
              41.84814181
            ],
            [
              12.70578825,
              41.84815053
            ],
            [
              12.70576943,
              41.84823956
            ],
            [
              12.70584027,
              41.84825166
            ],
            [
              12.70583364,
              41.84828405
            ],
            [
              12.70556614,
              41.84824463
            ],
            [
              12.70558663,
              41.84814181
            ]
          ]
        ]
      },
      "properties": {
        "id": "campo-3",
        "nome": "CAMPO 3",
        "ordine": 3,
        "coltura": "seminativo",
        "area_m2": 233.8,
        "area_ha": 0.0234,
        "perimetro_m": 70.6,
        "n_vertici": 6,
        "centroide": [
          12.70569058,
          41.84820855
        ],
        "colore": "#1976d2"
      }
    },
    {
      "type": "Feature",
      "id": "campo-4",
      "geometry": {
        "type": "Polygon",
        "coordinates": [
          [
            [
              12.70583414,
              41.84828481
            ],
            [
              12.70583864,
              41.84826315
            ],
            [
              12.70588114,
              41.84826916
            ],
            [
              12.70590703,
              41.84816425
            ],
            [
              12.70592332,
              41.84816617
            ],
            [
              12.70594057,
              41.84815656
            ],
            [
              12.70597797,
              41.84818081
            ],
            [
              12.70599683,
              41.84819344
            ],
            [
              12.70599855,
              41.84820484
            ],
            [
              12.7060335,
              41.84819658
            ],
            [
              12.70607327,
              41.84825159
            ],
            [
              12.70607223,
              41.84827027
            ],
            [
              12.706128,
              41.84831956
            ],
            [
              12.70583414,
              41.84828481
            ]
          ]
        ]
      },
      "properties": {
        "id": "campo-4",
        "nome": "CAMPO 4",
        "ordine": 4,
        "coltura": "seminativo",
        "area_m2": 211.3,
        "area_ha": 0.0211,
        "perimetro_m": 72.5,
        "n_vertici": 13,
        "centroide": [
          12.70597543,
          41.84824862
        ],
        "colore": "#1976d2"
      }
    },
    {
      "type": "Feature",
      "id": "campo-5",
      "geometry": {
        "type": "Polygon",
        "coordinates": [
          [
            [
              12.70591831,
              41.84814068
            ],
            [
              12.70590994,
              41.84811308
            ],
            [
              12.70590548,
              41.84809333
            ],
            [
              12.70586119,
              41.84808838
            ],
            [
              12.70586785,
              41.8480585
            ],
            [
              12.70590485,
              41.84805424
            ],
            [
              12.70601463,
              41.84807154
            ],
            [
              12.70602072,
              41.84808932
            ],
            [
              12.70600926,
              41.84818603
            ],
            [
              12.70601499,
              41.84820104
            ],
            [
              12.70599829,
              41.84820453
            ],
            [
              12.70599387,
              41.84819015
            ],
            [
              12.70594311,
              41.84815817
            ],
            [
              12.70591831,
              41.84814068
            ]
          ]
        ]
      },
      "properties": {
        "id": "campo-5",
        "nome": "CAMPO 5",
        "ordine": 5,
        "coltura": "seminativo",
        "area_m2": 118.6,
        "area_ha": 0.0119,
        "perimetro_m": 50.9,
        "n_vertici": 13,
        "centroide": [
          12.70595753,
          41.84811232
        ],
        "colore": "#1976d2"
      }
    },
    {
      "type": "Feature",
      "id": "terrazzamenti",
      "geometry": {
        "type": "Polygon",
        "coordinates": [
          [
            [
              12.70602108,
              41.84808901
            ],
            [
              12.7061095,
              41.84809761
            ],
            [
              12.70610268,
              41.8481306
            ],
            [
              12.70609348,
              41.84815855
            ],
            [
              12.70612669,
              41.8482138
            ],
            [
              12.70616168,
              41.84827654
            ],
            [
              12.70619491,
              41.84832688
            ],
            [
              12.70612692,
              41.84831945
            ],
            [
              12.70607178,
              41.84826934
            ],
            [
              12.7060726,
              41.84825196
            ],
            [
              12.70603494,
              41.84819758
            ],
            [
              12.70601527,
              41.84819922
            ],
            [
              12.7060096,
              41.84818547
            ],
            [
              12.70602108,
              41.84808901
            ]
          ]
        ]
      },
      "properties": {
        "id": "terrazzamenti",
        "nome": "TERRAZZAMENTI",
        "ordine": 6,
        "coltura": "terrazzamento",
        "area_m2": 174.9,
        "area_ha": 0.0175,
        "perimetro_m": 70.5,
        "n_vertici": 13,
        "centroide": [
          12.70608687,
          41.84820355
        ],
        "colore": "#b8860b"
      }
    },
    {
      "type": "Feature",
      "id": "campo-6",
      "geometry": {
        "type": "Polygon",
        "coordinates": [
          [
            [
              12.70619439,
              41.84832698
            ],
            [
              12.70615222,
              41.84825771
            ],
            [
              12.7065324,
              41.84831027
            ],
            [
              12.70656984,
              41.84838638
            ],
            [
              12.70619439,
              41.84832698
            ]
          ]
        ]
      },
      "properties": {
        "id": "campo-6",
        "nome": "CAMPO 6",
        "ordine": 7,
        "coltura": "seminativo",
        "area_m2": 232.9,
        "area_ha": 0.0233,
        "perimetro_m": 81.4,
        "n_vertici": 4,
        "centroide": [
          12.70636569,
          41.84832071
        ],
        "colore": "#1976d2"
      }
    },
    {
      "type": "Feature",
      "id": "campo-7",
      "geometry": {
        "type": "Polygon",
        "coordinates": [
          [
            [
              12.70613589,
              41.84819265
            ],
            [
              12.70611175,
              41.84818942
            ],
            [
              12.70609373,
              41.84815759
            ],
            [
              12.70610269,
              41.84812931
            ],
            [
              12.70610829,
              41.84809808
            ],
            [
              12.70620268,
              41.848119
            ],
            [
              12.70631285,
              41.84812998
            ],
            [
              12.70633739,
              41.84821619
            ],
            [
              12.70613589,
              41.84819265
            ]
          ]
        ]
      },
      "properties": {
        "id": "campo-7",
        "nome": "CAMPO 7",
        "ordine": 8,
        "coltura": "seminativo",
        "area_m2": 173.5,
        "area_ha": 0.0174,
        "perimetro_m": 56.7,
        "n_vertici": 8,
        "centroide": [
          12.70621209,
          41.84816018
        ],
        "colore": "#1976d2"
      }
    },
    {
      "type": "Feature",
      "id": "campo-8",
      "geometry": {
        "type": "Polygon",
        "coordinates": [
          [
            [
              12.70615035,
              41.84825763
            ],
            [
              12.70611092,
              41.84818942
            ],
            [
              12.70649774,
              41.84823807
            ],
            [
              12.70652984,
              41.84830896
            ],
            [
              12.70615035,
              41.84825763
            ]
          ]
        ]
      },
      "properties": {
        "id": "campo-8",
        "nome": "CAMPO 8",
        "ordine": 9,
        "coltura": "seminativo",
        "area_m2": 229.5,
        "area_ha": 0.0229,
        "perimetro_m": 81.1,
        "n_vertici": 4,
        "centroide": [
          12.70632393,
          41.84824861
        ],
        "colore": "#1976d2"
      }
    },
    {
      "type": "Feature",
      "id": "campo-9",
      "geometry": {
        "type": "Polygon",
        "coordinates": [
          [
            [
              12.70633804,
              41.84821885
            ],
            [
              12.70631138,
              41.84812997
            ],
            [
              12.70646053,
              41.84814633
            ],
            [
              12.7064984,
              41.8482385
            ],
            [
              12.70633804,
              41.84821885
            ]
          ]
        ]
      },
      "properties": {
        "id": "campo-9",
        "nome": "CAMPO 9",
        "ordine": 10,
        "coltura": "seminativo",
        "area_m2": 124.0,
        "area_ha": 0.0124,
        "perimetro_m": 46.8,
        "n_vertici": 4,
        "centroide": [
          12.70640256,
          41.84818396
        ],
        "colore": "#1976d2"
      }
    },
    {
      "type": "Feature",
      "id": "campo-10",
      "geometry": {
        "type": "Polygon",
        "coordinates": [
          [
            [
              12.70649644,
              41.84823551
            ],
            [
              12.70665885,
              41.84825517
            ],
            [
              12.70662293,
              41.84839508
            ],
            [
              12.7065703,
              41.84838726
            ],
            [
              12.70649644,
              41.84823551
            ]
          ]
        ]
      },
      "properties": {
        "id": "campo-10",
        "nome": "CAMPO 10",
        "ordine": 11,
        "coltura": "seminativo",
        "area_m2": 142.3,
        "area_ha": 0.0142,
        "perimetro_m": 51.9,
        "n_vertici": 4,
        "centroide": [
          12.70658565,
          41.84830583
        ],
        "colore": "#1976d2"
      }
    },
    {
      "type": "Feature",
      "id": "campo-11",
      "geometry": {
        "type": "Polygon",
        "coordinates": [
          [
            [
              12.70649644,
              41.84823551
            ],
            [
              12.70645859,
              41.84814201
            ],
            [
              12.70646297,
              41.84811563
            ],
            [
              12.70668601,
              41.84814007
            ],
            [
              12.70667922,
              41.84816486
            ],
            [
              12.70665814,
              41.84825551
            ],
            [
              12.70649644,
              41.84823551
            ]
          ]
        ]
      },
      "properties": {
        "id": "campo-11",
        "nome": "CAMPO 11",
        "ordine": 12,
        "coltura": "seminativo",
        "area_m2": 214.4,
        "area_ha": 0.0214,
        "perimetro_m": 59.2,
        "n_vertici": 6,
        "centroide": [
          12.70657284,
          41.848183
        ],
        "colore": "#1976d2"
      }
    },
    {
      "type": "Feature",
      "id": "uliveto",
      "geometry": {
        "type": "Polygon",
        "coordinates": [
          [
            [
              12.7066241,
              41.84839526
            ],
            [
              12.70668699,
              41.8481488
            ],
            [
              12.70700517,
              41.84819379
            ],
            [
              12.7069517,
              41.84845293
            ],
            [
              12.7066241,
              41.84839526
            ]
          ]
        ]
      },
      "properties": {
        "id": "uliveto",
        "nome": "ULIVETO",
        "ordine": 13,
        "coltura": "olivo",
        "area_m2": 781.1,
        "area_ha": 0.0781,
        "perimetro_m": 111.9,
        "n_vertici": 4,
        "centroide": [
          12.70681796,
          41.84829866
        ],
        "colore": "#6b8e23"
      }
    }
  ]
}