<?xml version="1.0" encoding="UTF-8"?>
<kml xmlns="http://www.opengis.net/kml/2.2" xmlns:gx="http://www.google.com/kml/ext/2.2" xmlns:kml="http://www.opengis.net/kml/2.2" xmlns:atom="http://www.w3.org/2005/Atom">
<Document id="14kGoMiGFmCLp5MBfM8lQu3DCelzF4IOi">
	<name>rilevamento_campi</name>
	<gx:CascadingStyle kml:id="__managed_style_09594450E140978AA8EB_highlight">
		<Style>
			<IconStyle>
				<scale>1.2</scale>
				<Icon>
					<href>https://earth.google.com/earth/document/icon?color=1976d2&amp;id=2000&amp;scale=4</href>
				</Icon>
				<hotSpot x="64" y="128" xunits="pixels" yunits="insetPixels"/>
			</IconStyle>
			<LabelStyle>
			</LabelStyle>
			<LineStyle>
				<color>ff2dc0fb</color>
				<width>6</width>
			</LineStyle>
			<PolyStyle>
				<color>4058eeff</color>
			</PolyStyle>
			<BalloonStyle>
			</BalloonStyle>
		</Style>
	</gx:CascadingStyle>
	<StyleMap id="__managed_style_09594450E140978AA8EB">
		<Pair>
			<key>normal</key>
			<styleUrl>#__managed_style_09594450E140978AA8EB_normal</styleUrl>
		</Pair>
		<Pair>
			<key>highlight</key>
			<styleUrl>#__managed_style_09594450E140978AA8EB_highlight</styleUrl>
		</Pair>
	</StyleMap>
	<gx:CascadingStyle kml:id="__managed_style_035711882D40978AA8E9_normal">
		<styleUrl>https://earth.google.com/balloon_components/base/1.1.0.0/card_template.kml#main</styleUrl>
		<Style>
			<IconStyle>
				<Icon>
					<href>https://earth.google.com/earth/document/icon?color=1976d2&amp;id=2000&amp;scale=4</href>
				</Icon>
				<hotSpot x="64" y="128" xunits="pixels" yunits="insetPixels"/>
			</IconStyle>
			<LabelStyle>
			</LabelStyle>
			<LineStyle>
				<color>ff37405d</color>
				<width>4</width>
			</LineStyle>
			<PolyStyle>
				<color>40636e8d</color>
			</PolyStyle>
			<BalloonStyle>
			</BalloonStyle>
		</Style>
	</gx:CascadingStyle>
	<StyleMap id="__managed_style_035711882D40978AA8E9">
		<Pair>
			<key>normal</key>
			<styleUrl>#__managed_style_035711882D40978AA8E9_normal</styleUrl>
		</Pair>
		<Pair>
			<key>highlight</key>
			<styleUrl>#__managed_style_035711882D40978AA8E9_highlight</styleUrl>
		</Pair>
	</StyleMap>
	<gx:CascadingStyle kml:id="__managed_style_1617CCDFDF40978AA8EC_highlight">
		<styleUrl>https://earth.google.com/balloon_components/base/1.1.0.0/card_template.kml#main</styleUrl>
		<Style>
			<IconStyle>
				<scale>1.2</scale>
				<Icon>
					<href>https://earth.google.com/earth/document/icon?color=1976d2&amp;id=2000&amp;scale=4</href>
				</Icon>
				<hotSpot x="64" y="128" xunits="pixels" yunits="insetPixels"/>
			</IconStyle>
			<LabelStyle>
			</LabelStyle>
			<LineStyle>
				<color>ff9f3f30</color>
				<width>6</width>
			</LineStyle>
			<PolyStyle>
				<color>40c06b5c</color>
			</PolyStyle>
			<BalloonStyle>
			</BalloonStyle>
		</Style>
	</gx:CascadingStyle>
	<gx:CascadingStyle kml:id="__managed_style_1617CCDFDF40978AA8EC_normal">
		<styleUrl>https://earth.google.com/balloon_components/base/1.1.0.0/card_template.kml#main</styleUrl>
		<Style>
			<IconStyle>
				<Icon>
					<href>https://earth.google.com/earth/document/icon?color=1976d2&amp;id=2000&amp;scale=4</href>
				</Icon>
				<hotSpot x="64" y="128" xunits="pixels" yunits="insetPixels"/>
			</IconStyle>
			<LabelStyle>
			</LabelStyle>
			<LineStyle>
				<color>ff9f3f30</color>
				<width>4</width>
			</LineStyle>
			<PolyStyle>
				<color>40c06b5c</color>
			</PolyStyle>
			<BalloonStyle>
			</BalloonStyle>
		</Style>
	</gx:CascadingStyle>
	<gx:CascadingStyle kml:id="__managed_style_16955EEDDC40978AA8EB_highlight">
		<styleUrl>https://earth.google.com/balloon_components/base/1.1.0.0/card_template.kml#main</styleUrl>
		<Style>
			<IconStyle>
				<scale>1.2</scale>
				<Icon>
					<href>https://earth.google.com/earth/document/icon?color=1976d2&amp;id=2000&amp;scale=4</href>
				</Icon>
				<hotSpot x="64" y="128" xunits="pixels" yunits="insetPixels"/>
			</IconStyle>
			<LabelStyle>
			</LabelStyle>
			<LineStyle>
				<color>ff007cf5</color>
				<width>6</width>
			</LineStyle>
			<PolyStyle>
				<color>4026a7ff</color>
			</PolyStyle>
			<BalloonStyle>
			</BalloonStyle>
		</Style>
	</gx:CascadingStyle>
	<StyleMap id="__managed_style_16955EEDDC40978AA8EB">
		<Pair>
			<key>normal</key>
			<styleUrl>#__managed_style_16955EEDDC40978AA8EB_normal</styleUrl>
		</Pair>
		<Pair>
			<key>highlight</key>
			<styleUrl>#__managed_style_16955EEDDC40978AA8EB_highlight</styleUrl>
		</Pair>
	</StyleMap>
	<gx:CascadingStyle kml:id="__managed_style_178DFC0F8040978AA8E8_highlight">
		<Style>
			<IconStyle>
				<scale>1.2</scale>
				<Icon>
					<href>https://earth.google.com/earth/document/icon?color=1976d2&amp;id=2000&amp;scale=4</href>
				</Icon>
				<hotSpot x="64" y="128" xunits="pixels" yunits="insetPixels"/>
			</IconStyle>
			<LabelStyle>
			</LabelStyle>
			<LineStyle>
				<color>ff2f2fd3</color>
				<width>6</width>
			</LineStyle>
			<PolyStyle>
				<color>405053ef</color>
			</PolyStyle>
			<BalloonStyle>
			</BalloonStyle>
		</Style>
	</gx:CascadingStyle>
	<gx:CascadingStyle kml:id="__managed_style_29EE55028B40978AA8E8_highlight">
		<Style>
			<IconStyle>
				<scale>1.2</scale>
				<Icon>
					<href>https://earth.google.com/earth/document/icon?color=1976d2&amp;id=2000&amp;scale=4</href>
				</Icon>
				<hotSpot x="64" y="128" xunits="pixels" yunits="insetPixels"/>
			</IconStyle>
			<LabelStyle>
			</LabelStyle>
			<LineStyle>
				<color>ffa21f7b</color>
				<width>6</width>
			</LineStyle>
			<PolyStyle>
				<color>40bc47ab</color>
			</PolyStyle>
			<BalloonStyle>
			</BalloonStyle>
		</Style>
	</gx:CascadingStyle>
	<gx:CascadingStyle kml:id="__managed_style_29EE55028B40978AA8E8_normal">
		<Style>
			<IconStyle>
				<Icon>
					<href>https://earth.google.com/earth/document/icon?color=1976d2&amp;id=2000&amp;scale=4</href>
				</Icon>
				<hotSpot x="64" y="128" xunits="pixels" yunits="insetPixels"/>
			</IconStyle>
			<LabelStyle>
			</LabelStyle>
			<LineStyle>
				<color>ffa21f7b</color>
				<width>4</width>
			</LineStyle>
			<PolyStyle>
				<color>40bc47ab</color>
			</PolyStyle>
			<BalloonStyle>
			</BalloonStyle>
		</Style>
	</gx:CascadingStyle>
	<gx:CascadingStyle kml:id="__managed_style_09594450E140978AA8EB_normal">
		<Style>
			<IconStyle>
				<Icon>
					<href>https://earth.google.com/earth/document/icon?color=1976d2&amp;id=2000&amp;scale=4</href>
				</Icon>
				<hotSpot x="64" y="128" xunits="pixels" yunits="insetPixels"/>
			</IconStyle>
			<LabelStyle>
			</LabelStyle>
			<LineStyle>
				<color>ff2dc0fb</color>
				<width>4</width>
			</LineStyle>
			<PolyStyle>
				<color>4058eeff</color>
			</PolyStyle>
			<BalloonStyle>
			</BalloonStyle>
		</Style>
	</gx:CascadingStyle>
	<StyleMap id="__managed_style_1617CCDFDF40978AA8EC">
		<Pair>
			<key>normal</key>
			<styleUrl>#__managed_style_1617CCDFDF40978AA8EC_normal</styleUrl>
		</Pair>
		<Pair>
			<key>highlight</key>
			<styleUrl>#__managed_style_1617CCDFDF40978AA8EC_highlight</styleUrl>
		</Pair>
	</StyleMap>
	<gx:CascadingStyle kml:id="__managed_style_043E6EFD6840978AA8EC_highlight">
		<Style>
			<IconStyle>
				<scale>1.2</scale>
				<Icon>
					<href>https://earth.google.com/earth/document/icon?color=1976d2&amp;id=2000&amp;scale=4</href>
				</Icon>
				<hotSpot x="64" y="128" xunits="pixels" yunits="insetPixels"/>
			</IconStyle>
			<LabelStyle>
			</LabelStyle>
			<LineStyle>
				<color>ff5053ef</color>
				<width>6</width>
			</LineStyle>
			<PolyStyle>
				<color>405053ef</color>
			</PolyStyle>
			<BalloonStyle>
			</BalloonStyle>
		</Style>
	</gx:CascadingStyle>
	<gx:CascadingStyle kml:id="__managed_style_3EAF7B33A040978AA8E8_highlight">
		<Style>
			<IconStyle>
				<scale>1.2</scale>
				<Icon>
					<href>https://earth.google.com/earth/document/icon?color=1976d2&amp;id=2000&amp;scale=4</href>
				</Icon>
				<hotSpot x="64" y="128" xunits="pixels" yunits="insetPixels"/>
			</IconStyle>
			<LabelStyle>
			</LabelStyle>
			<LineStyle>
				<color>ff6b7900</color>
				<width>6</width>
			</LineStyle>
			<PolyStyle>
				<color>409aa626</color>
			</PolyStyle>
			<BalloonStyle>
			</BalloonStyle>
		</Style>
	</gx:CascadingStyle>
	<gx:CascadingStyle kml:id="__managed_style_178DFC0F8040978AA8E8_normal">
		<Style>
			<IconStyle>
				<Icon>
					<href>https://earth.google.com/earth/document/icon?color=1976d2&amp;id=2000&amp;scale=4</href>
				</Icon>
				<hotSpot x="64" y="128" xunits="pixels" yunits="insetPixels"/>
			</IconStyle>
			<LabelStyle>
			</LabelStyle>
			<LineStyle>
				<color>ff2f2fd3</color>
				<width>4</width>
			</LineStyle>
			<PolyStyle>
				<color>405053ef</color>
			</PolyStyle>
			<BalloonStyle>
			</BalloonStyle>
		</Style>
	</gx:CascadingStyle>
	<gx:CascadingStyle kml:id="__managed_style_3EAF7B33A040978AA8E8_normal">
		<Style>
			<IconStyle>
				<Icon>
					<href>https://earth.google.com/earth/document/icon?color=1976d2&amp;id=2000&amp;scale=4</href>
				</Icon>
				<hotSpot x="64" y="128" xunits="pixels" yunits="insetPixels"/>
			</IconStyle>
			<LabelStyle>
			</LabelStyle>
			<LineStyle>
				<color>ff6b7900</color>
				<width>4</width>
			</LineStyle>
			<PolyStyle>
				<color>409aa626</color>
			</PolyStyle>
			<BalloonStyle>
			</BalloonStyle>
		</Style>
	</gx:CascadingStyle>
	<StyleMap id="__managed_style_3EAF7B33A040978AA8E8">
		<Pair>
			<key>normal</key>
			<styleUrl>#__managed_style_3EAF7B33A040978AA8E8_normal</styleUrl>
		</Pair>
		<Pair>
			<key>highlight</key>
			<styleUrl>#__managed_style_3EAF7B33A040978AA8E8_highlight</styleUrl>
		</Pair>
	</StyleMap>
	<gx:CascadingStyle kml:id="__managed_style_16955EEDDC40978AA8EB_normal">
		<styleUrl>https://earth.google.com/balloon_components/base/1.1.0.0/card_template.kml#main</styleUrl>
		<Style>
			<IconStyle>
				<Icon>
					<href>https://earth.google.com/earth/document/icon?color=1976d2&amp;id=2000&amp;scale=4</href>
				</Icon>
				<hotSpot x="64" y="128" xunits="pixels" yunits="insetPixels"/>
			</IconStyle>
			<LabelStyle>
			</LabelStyle>
			<LineStyle>
				<color>ff007cf5</color>
				<width>4</width>
			</LineStyle>
			<PolyStyle>
				<color>4026a7ff</color>
			</PolyStyle>
			<BalloonStyle>
			</BalloonStyle>
		</Style>
	</gx:CascadingStyle>
	<StyleMap id="__managed_style_03D59ACEB140978AA8E6">
		<Pair>
			<key>normal</key>
			<styleUrl>#__managed_style_03D59ACEB140978AA8E6_normal</styleUrl>
		</Pair>
		<Pair>
			<key>highlight</key>
			<styleUrl>#__managed_style_03D59ACEB140978AA8E6_highlight</styleUrl>
		</Pair>
	</StyleMap>
	<gx:CascadingStyle kml:id="__managed_style_2E8E51F68740978AA8EC_normal">
		<Style>
			<IconStyle>
				<Icon>
					<href>https://earth.google.com/earth/document/icon?color=1976d2&amp;id=2000&amp;scale=4</href>
				</Icon>
				<hotSpot x="64" y="128" xunits="pixels" yunits="insetPixels"/>
			</IconStyle>
			<LabelStyle>
			</LabelStyle>
			<LineStyle>
				<color>ffa21f7b</color>
				<width>4</width>
			</LineStyle>
			<PolyStyle>
				<color>40bc47ab</color>
			</PolyStyle>
			<BalloonStyle>
			</BalloonStyle>
		</Style>
	</gx:CascadingStyle>
	<gx:CascadingStyle kml:id="__managed_style_035711882D40978AA8E9_highlight">
		<styleUrl>https://earth.google.com/balloon_components/base/1.1.0.0/card_template.kml#main</styleUrl>
		<Style>
			<IconStyle>
				<scale>1.2</scale>
				<Icon>
					<href>https://earth.google.com/earth/document/icon?color=1976d2&amp;id=2000&amp;scale=4</href>
				</Icon>
				<hotSpot x="64" y="128" xunits="pixels" yunits="insetPixels"/>
			</IconStyle>
			<LabelStyle>
			</LabelStyle>
			<LineStyle>
				<color>ff37405d</color>
				<width>6</width>
			</LineStyle>
			<PolyStyle>
				<color>40636e8d</color>
			</PolyStyle>
			<BalloonStyle>
			</BalloonStyle>
		</Style>
	</gx:CascadingStyle>
	<StyleMap id="__managed_style_178DFC0F8040978AA8E8">
		<Pair>
			<key>normal</key>
			<styleUrl>#__managed_style_178DFC0F8040978AA8E8_normal</styleUrl>
		</Pair>
		<Pair>
			<key>highlight</key>
			<styleUrl>#__managed_style_178DFC0F8040978AA8E8_highlight</styleUrl>
		</Pair>
	</StyleMap>
	<StyleMap id="__managed_style_29EE55028B40978AA8E8">
		<Pair>
			<key>normal</key>
			<styleUrl>#__managed_style_29EE55028B40978AA8E8_normal</styleUrl>
		</Pair>
		<Pair>
			<key>highlight</key>
			<styleUrl>#__managed_style_29EE55028B40978AA8E8_highlight</styleUrl>
		</Pair>
	</StyleMap>
	<StyleMap id="__managed_style_2E8E51F68740978AA8EC">
		<Pair>
			<key>normal</key>
			<styleUrl>#__managed_style_2E8E51F68740978AA8EC_normal</styleUrl>
		</Pair>
		<Pair>
			<key>highlight</key>
			<styleUrl>#__managed_style_2E8E51F68740978AA8EC_highlight</styleUrl>
		</Pair>
	</StyleMap>
	<StyleMap id="__managed_style_043E6EFD6840978AA8EC">
		<Pair>
			<key>normal</key>
			<styleUrl>#__managed_style_043E6EFD6840978AA8EC_normal</styleUrl>
		</Pair>
		<Pair>
			<key>highlight</key>
			<styleUrl>#__managed_style_043E6EFD6840978AA8EC_highlight</styleUrl>
		</Pair>
	</StyleMap>
	<gx:CascadingStyle kml:id="__managed_style_2E8E51F68740978AA8EC_highlight">
		<Style>
			<IconStyle>
				<scale>1.2</scale>
				<Icon>
					<href>https://earth.google.com/earth/document/icon?color=1976d2&amp;id=2000&amp;scale=4</href>
				</Icon>
				<hotSpot x="64" y="128" xunits="pixels" yunits="insetPixels"/>
			</IconStyle>
			<LabelStyle>
			</LabelStyle>
			<LineStyle>
				<color>ffa21f7b</color>
				<width>6</width>
			</LineStyle>
			<PolyStyle>
				<color>40bc47ab</color>
			</PolyStyle>
			<BalloonStyle>
			</BalloonStyle>
		</Style>
	</gx:CascadingStyle>
	<gx:CascadingStyle kml:id="__managed_style_043E6EFD6840978AA8EC_normal">
		<Style>
			<IconStyle>
				<Icon>
					<href>https://earth.google.com/earth/document/icon?color=1976d2&amp;id=2000&amp;scale=4</href>
				</Icon>
				<hotSpot x="64" y="128" xunits="pixels" yunits="insetPixels"/>
			</IconStyle>
			<LabelStyle>
			</LabelStyle>
			<LineStyle>
				<color>ff5053ef</color>
				<width>4</width>
			</LineStyle>
			<PolyStyle>
				<color>405053ef</color>
			</PolyStyle>
			<BalloonStyle>
			</BalloonStyle>
		</Style>
	</gx:CascadingStyle>
	<gx:CascadingStyle kml:id="__managed_style_03D59ACEB140978AA8E6_highlight">
		<Style>
			<IconStyle>
				<scale>1.2</scale>
				<Icon>
					<href>https://earth.google.com/earth/document/icon?color=1976d2&amp;id=2000&amp;scale=4</href>
				</Icon>
				<hotSpot x="64" y="128" xunits="pixels" yunits="insetPixels"/>
			</IconStyle>
			<LabelStyle>
			</LabelStyle>
			<LineStyle>
				<color>ffd27619</color>
				<width>6</width>
			</LineStyle>
			<PolyStyle>
				<color>40f5a542</color>
			</PolyStyle>
			<BalloonStyle>
			</BalloonStyle>
		</Style>
	</gx:CascadingStyle>
	<gx:CascadingStyle kml:id="__managed_style_03D59ACEB140978AA8E6_normal">
		<Style>
			<IconStyle>
				<Icon>
					<href>https://earth.google.com/earth/document/icon?color=1976d2&amp;id=2000&amp;scale=4</href>
				</Icon>
				<hotSpot x="64" y="128" xunits="pixels" yunits="insetPixels"/>
			</IconStyle>
			<LabelStyle>
			</LabelStyle>
			<LineStyle>
				<color>ffd27619</color>
				<width>4</width>
			</LineStyle>
			<PolyStyle>
				<color>40f5a542</color>
			</PolyStyle>
			<BalloonStyle>
			</BalloonStyle>
		</Style>
	</gx:CascadingStyle>
	<gx:CascadingStyle kml:id="__managed_style_00F006594540978AA8E8_highlight">
		<Style>
			<IconStyle>
				<scale>1.2</scale>
				<Icon>
					<href>https://earth.google.com/earth/document/icon?color=1976d2&amp;id=2000&amp;scale=4</href>
				</Icon>
				<hotSpot x="64" y="128" xunits="pixels" yunits="insetPixels"/>
			</IconStyle>
			<LabelStyle>
			</LabelStyle>
			<LineStyle>
				<color>ff2dc0fb</color>
				<width>6</width>
			</LineStyle>
			<PolyStyle>
				<color>4058eeff</color>
			</PolyStyle>
			<BalloonStyle>
			</BalloonStyle>
		</Style>
	</gx:CascadingStyle>
	<gx:CascadingStyle kml:id="__managed_style_00F006594540978AA8E8_normal">
		<Style>
			<IconStyle>
				<Icon>
					<href>https://earth.google.com/earth/document/icon?color=1976d2&amp;id=2000&amp;scale=4</href>
				</Icon>
				<hotSpot x="64" y="128" xunits="pixels" yunits="insetPixels"/>
			</IconStyle>
			<LabelStyle>
			</LabelStyle>
			<LineStyle>
				<color>ff2dc0fb</color>
				<width>4</width>
			</LineStyle>
			<PolyStyle>
				<color>4058eeff</color>
			</PolyStyle>
			<BalloonStyle>
			</BalloonStyle>
		</Style>
	</gx:CascadingStyle>
	<StyleMap id="__managed_style_00F006594540978AA8E8">
		<Pair>
			<key>normal</key>
			<styleUrl>#__managed_style_00F006594540978AA8E8_normal</styleUrl>
		</Pair>
		<Pair>
			<key>highlight</key>
			<styleUrl>#__managed_style_00F006594540978AA8E8_highlight</styleUrl>
		</Pair>
	</StyleMap>
	<Placemark id="05618ECED74086991BF8">
		<name>CAMPO 1</name>
		<LookAt>
			<longitude>12.70571025578658</longitude>
			<latitude>41.84816207959969</latitude>
			<altitude>128.6223703813003</altitude>
			<heading>0</heading>
			<tilt>0</tilt>
			<gx:fovy>35</gx:fovy>
			<range>110.8459881893214</range>
			<altitudeMode>absolute</altitudeMode>
		</LookAt>
		<styleUrl>#__managed_style_00F006594540978AA8E8</styleUrl>
		<Polygon>
			<outerBoundaryIs>
				<LinearRing>
					<coordinates>
						12.70541979759107,41.84796888899755,0 12.70583038752906,41.84802704191947,0 12.70581717451977,41.84808363726177,0 12.70577500954588,41.84811574028086,0 12.70560822797842,41.84810927713918,0 12.70554831112342,41.84809936287275,0 12.7055174352081,41.84808345446594,0 12.70548923741674,41.84805850448144,0 12.70546096893998,41.84803276603107,0 12.70543378115302,41.84800208169888,0 12.70541470936739,41.84798588593178,0 12.70541979759107,41.84796888899755,0 
					</coordinates>
				</LinearRing>
			</outerBoundaryIs>
		</Polygon>
	</Placemark>
	<Placemark id="09BBA95CFC4086999AFC">
		<name>CAMPO 2</name>
		<LookAt>
			<longitude>12.70571025578658</longitude>
			<latitude>41.84816207959969</latitude>
			<altitude>128.6223703813003</altitude>
			<heading>0</heading>
			<tilt>0</tilt>
			<gx:fovy>35</gx:fovy>
			<range>110.8459881893214</range>
			<altitudeMode>absolute</altitudeMode>
		</LookAt>
		<styleUrl>#__managed_style_03D59ACEB140978AA8E6</styleUrl>
		<Polygon>
			<outerBoundaryIs>
				<LinearRing>
					<coordinates>
						12.70535018658107,41.84795907314765,0 12.70543495890975,41.84807741912417,0 12.70553120774357,41.84813779826039,0 12.7055875460685,41.84814180471465,0 12.70556703387455,41.84824396427211,0 12.7053759247059,41.84821626393176,0 12.70528520020949,41.84820232281352,0 12.70535018658107,41.84795907314765,0 
					</coordinates>
				</LinearRing>
			</outerBoundaryIs>
		</Polygon>
	</Placemark>
	<Placemark id="00719BE90740869A02A1">
		<name>CAMPO 3</name>
		<LookAt>
			<longitude>12.70571025578658</longitude>
			<latitude>41.84816207959969</latitude>
			<altitude>128.6223703813003</altitude>
			<heading>0</heading>
			<tilt>0</tilt>
			<gx:fovy>35</gx:fovy>
			<range>110.8459881893214</range>
			<altitudeMode>absolute</altitudeMode>
		</LookAt>
		<styleUrl>#__managed_style_043E6EFD6840978AA8EC</styleUrl>
		<Polygon>
			<outerBoundaryIs>
				<LinearRing>
					<coordinates>
						12.70558663498109,41.84814180664428,0 12.70578825231976,41.84815052935838,0 12.70576942983131,41.84823956333317,0 12.705840266971,41.84825166318255,0 12.70583364312331,41.84828405426766,0 12.70556614222772,41.84824463204211,0 12.70558663498109,41.84814180664428,0 
					</coordinates>
				</LinearRing>
			</outerBoundaryIs>
		</Polygon>
	</Placemark>
	<Placemark id="033DB20C8840869C91F8">
		<name>CAMPO 4</name>
		<LookAt>
			<longitude>12.70601571244589</longitude>
			<latitude>41.8482486462044</latitude>
			<altitude>124.4718030287299</altitude>
			<heading>0</heading>
			<tilt>0</tilt>
			<gx:fovy>35</gx:fovy>
			<range>114.9965399722714</range>
			<altitudeMode>absolute</altitudeMode>
		</LookAt>
		<styleUrl>#__managed_style_2E8E51F68740978AA8EC</styleUrl>
		<Polygon>
			<outerBoundaryIs>
				<LinearRing>
					<coordinates>
						12.7058341359432,41.84828480871165,0 12.70583864442003,41.84826314861497,0 12.70588114378084,41.84826916243792,0 12.70590702503202,41.84816425277211,0 12.70592331563986,41.84816616560593,0 12.70594056721815,41.848156561255,0 12.70597796564798,41.84818081104111,0 12.70599683172175,41.84819344287851,0 12.70599854548626,41.84820484328932,0 12.70603350404698,41.84819658325206,0 12.70607327439418,41.84825159262451,0 12.70607223395278,41.84827026609931,0 12.70612800200244,41.84831956479304,0 12.7058341359432,41.84828480871165,0 
					</coordinates>
				</LinearRing>
			</outerBoundaryIs>
		</Polygon>
	</Placemark>
	<Placemark id="009922F40040869E0BD4">
		<name>CAMPO 5</name>
		<LookAt>
			<longitude>12.70595288673714</longitude>
			<latitude>41.84815355871235</latitude>
			<altitude>123.7691154132058</altitude>
			<heading>0</heading>
			<tilt>0</tilt>
			<gx:fovy>35</gx:fovy>
			<range>79.87131692812909</range>
			<altitudeMode>absolute</altitudeMode>
		</LookAt>
		<styleUrl>#__managed_style_3EAF7B33A040978AA8E8</styleUrl>
		<Polygon>
			<outerBoundaryIs>
				<LinearRing>
					<coordinates>
						12.70591830544856,41.84814067863972,0 12.70590993944467,41.84811308382624,0 12.70590547572,41.84809332587603,0 12.70586118967809,41.84808837875195,0 12.70586784562868,41.84805850105356,0 12.70590485316452,41.84805424384552,0 12.70601463207825,41.84807154187153,0 12.70602071764319,41.84808931549257,0 12.70600926359979,41.84818603234894,0 12.70601499239002,41.84820103966523,0 12.70599829088775,41.84820453365064,0 12.70599387457172,41.84819014923049,0 12.70594310737695,41.84815817240057,0 12.70591830544856,41.84814067863972,0 
					</coordinates>
				</LinearRing>
			</outerBoundaryIs>
		</Polygon>
	</Placemark>
	<Placemark id="052D931D7040869ED1D0">
		<name>TERRAZZAMENTI</name>
		<LookAt>
			<longitude>12.70605601328014</longitude>
			<latitude>41.8482140861279</latitude>
			<altitude>125.5132169539725</altitude>
			<heading>0</heading>
			<tilt>0</tilt>
			<gx:fovy>35</gx:fovy>
			<range>86.29070652920747</range>
			<altitudeMode>absolute</altitudeMode>
		</LookAt>
		<styleUrl>#__managed_style_29EE55028B40978AA8E8</styleUrl>
		<Polygon>
			<outerBoundaryIs>
				<LinearRing>
					<coordinates>
						12.70602107633207,41.84808900628486,0 12.70610949673594,41.84809760738639,0 12.70610267724186,41.84813060336182,0 12.70609348314649,41.84815854722921,0 12.70612668627446,41.84821379995503,0 12.7061616766446,41.84827654084635,0 12.70619490654085,41.84832687816422,0 12.70612692273347,41.8483194538254,0 12.7060717792893,41.84826933783504,0 12.70607260238153,41.84825196442537,0 12.7060349393765,41.84819757590215,0 12.70601526701034,41.84819922020844,0 12.70600959987448,41.84818547019935,0 12.70602107633207,41.84808900628486,0 
					</coordinates>
				</LinearRing>
			</outerBoundaryIs>
		</Polygon>
	</Placemark>
	<Placemark id="0CB21483554086A20DF0">
		<name>CAMPO 6</name>
		<LookAt>
			<longitude>12.70645746222371</longitude>
			<latitude>41.84831999932241</latitude>
			<altitude>116.9875155680118</altitude>
			<heading>0</heading>
			<tilt>0</tilt>
			<gx:fovy>35</gx:fovy>
			<range>138.463384183251</range>
			<altitudeMode>absolute</altitudeMode>
		</LookAt>
		<styleUrl>#__managed_style_178DFC0F8040978AA8E8</styleUrl>
		<Polygon>
			<outerBoundaryIs>
				<LinearRing>
					<coordinates>
						12.70619438897886,41.84832697731306,0 12.70615221592299,41.848257712328,0 12.70653240316546,41.84831027227224,0 12.7065698398864,41.84838637660834,0 12.70619438897886,41.84832697731306,0 
					</coordinates>
				</LinearRing>
			</outerBoundaryIs>
		</Polygon>
	</Placemark>
	<Placemark id="0CF7A5CAA04086AB3127">
		<name>CAMPO 7</name>
		<LookAt>
			<longitude>12.70645746222371</longitude>
			<latitude>41.84831999932241</latitude>
			<altitude>116.9875155680118</altitude>
			<heading>0</heading>
			<tilt>0</tilt>
			<gx:fovy>35</gx:fovy>
			<range>138.463384183251</range>
			<altitudeMode>absolute</altitudeMode>
		</LookAt>
		<styleUrl>#__managed_style_16955EEDDC40978AA8EB</styleUrl>
		<Polygon>
			<outerBoundaryIs>
				<LinearRing>
					<coordinates>
						12.70613588747678,41.84819264867079,0 12.70611175337162,41.84818942101709,0 12.70609373362023,41.84815759003085,0 12.70610268980998,41.84812931435235,0 12.70610828875393,41.84809807724049,0 12.70620267738516,41.84811900448314,0 12.70631285058209,41.84812997594202,0 12.70633738561727,41.84821619162354,0 12.70613588747678,41.84819264867079,0 
					</coordinates>
				</LinearRing>
			</outerBoundaryIs>
		</Polygon>
	</Placemark>
	<Placemark id="03116CCA224086ACC9C9">
		<name>CAMPO 8</name>
		<LookAt>
			<longitude>12.70645746222371</longitude>
			<latitude>41.84831999932241</latitude>
			<altitude>116.9875155680118</altitude>
			<heading>0</heading>
			<tilt>0</tilt>
			<gx:fovy>35</gx:fovy>
			<range>138.463384183251</range>
			<altitudeMode>absolute</altitudeMode>
		</LookAt>
		<styleUrl>#__managed_style_1617CCDFDF40978AA8EC</styleUrl>
		<Polygon>
			<outerBoundaryIs>
				<LinearRing>
					<coordinates>
						12.70615034651684,41.84825762741683,0 12.70611091988728,41.84818941877958,0 12.70649773577712,41.84823806667153,0 12.70652984287584,41.84830896461074,0 12.70615034651684,41.84825762741683,0 
					</coordinates>
				</LinearRing>
			</outerBoundaryIs>
		</Polygon>
	</Placemark>
	<Placemark id="0CAD0D87344086ABF2AC">
		<name>CAMPO 9</name>
		<LookAt>
			<longitude>12.70645746222371</longitude>
			<latitude>41.84831999932241</latitude>
			<altitude>116.9875155680118</altitude>
			<heading>0</heading>
			<tilt>0</tilt>
			<gx:fovy>35</gx:fovy>
			<range>138.463384183251</range>
			<altitudeMode>absolute</altitudeMode>
		</LookAt>
		<styleUrl>#__managed_style_035711882D40978AA8E9</styleUrl>
		<Polygon>
			<outerBoundaryIs>
				<LinearRing>
					<coordinates>
						12.70633804425895,41.84821885346665,0 12.70631137697195,41.848129969835,0 12.70646052717438,41.84814633087208,0 12.7064983989744,41.84823849521292,0 12.70633804425895,41.84821885346665,0 
					</coordinates>
				</LinearRing>
			</outerBoundaryIs>
		</Polygon>
	</Placemark>
	<Placemark id="069762210E4086AE2343">
		<name>CAMPO 10</name>
		<LookAt>
			<longitude>12.70624880981392</longitude>
			<latitude>41.84835582249984</latitude>
			<altitude>120.7756631953316</altitude>
			<heading>8.952486157358031</heading>
			<tilt>5.547344551469607</tilt>
			<gx:fovy>35</gx:fovy>
			<range>207.1118293701875</range>
			<altitudeMode>absolute</altitudeMode>
		</LookAt>
		<styleUrl>#__managed_style_3EAF7B33A040978AA8E8</styleUrl>
		<Polygon>
			<outerBoundaryIs>
				<LinearRing>
					<coordinates>
						12.70649643829232,41.84823551275284,0 12.70665885033048,41.84825516520247,0 12.70662292722857,41.84839507832362,0 12.70657030228398,41.84838726132128,0 12.70649643829232,41.84823551275284,0 
					</coordinates>
				</LinearRing>
			</outerBoundaryIs>
		</Polygon>
	</Placemark>
	<Placemark id="0922E7221F4086AEEA7B">
		<name>CAMPO 11</name>
		<LookAt>
			<longitude>12.70624880981392</longitude>
			<latitude>41.84835582276399</latitude>
			<altitude>120.7756631953316</altitude>
			<heading>8.952486156934787</heading>
			<tilt>5.547344551730386</tilt>
			<gx:fovy>35</gx:fovy>
			<range>207.1118525477868</range>
			<altitudeMode>absolute</altitudeMode>
		</LookAt>
		<styleUrl>#__managed_style_09594450E140978AA8EB</styleUrl>
		<Polygon>
			<outerBoundaryIs>
				<LinearRing>
					<coordinates>
						12.70649643829232,41.8482355127951,0 12.70645859460024,41.84814201220038,0 12.70646297369025,41.84811562953924,0 12.70668600913882,41.84814006525421,0 12.70667922446622,41.84816485531491,0 12.70665813692696,41.84825550573574,0 12.70649643829232,41.8482355127951,0 
					</coordinates>
				</LinearRing>
			</outerBoundaryIs>
		</Polygon>
	</Placemark>
	<Placemark id="027A243D834086AF772B">
		<name>ULIVETO</name>
		<LookAt>
			<longitude>12.70656097337504</longitude>
			<latitude>41.84831317617639</latitude>
			<altitude>117.3288766094449</altitude>
			<heading>8.952694419957686</heading>
			<tilt>5.547347562048663</tilt>
			<gx:fovy>35</gx:fovy>
			<range>210.5748640233288</range>
			<altitudeMode>absolute</altitudeMode>
		</LookAt>
		<styleUrl>#__managed_style_178DFC0F8040978AA8E8</styleUrl>
		<Polygon>
			<outerBoundaryIs>
				<LinearRing>
					<coordinates>
						12.70662409639989,41.84839526065611,0 12.70668699358708,41.84814879951607,0 12.70700516874968,41.8481937879038,0 12.7069516988144,41.84845293334124,0 12.70662409639989,41.84839526065611,0 
					</coordinates>
				</LinearRing>
			</outerBoundaryIs>
		</Polygon>
	</Placemark>
</Document>
</kml>
